Skip Page Navigation
NASA Logo - Jet Propulsion Laboratory				+ View the NASA Portal
+ Center for Near-Earth Object Studies			
JPL Home	Earth	Solar System	Stars & Galaxies	Technology

JPL Solar System Dynamics
BODIES		ORBITS		EPHEMERIDES		TOOLS		PHYSICAL DATA		DISCOVERY		FAQ		SITE MAP

IMPORTANT: The SSD Announcement email list is now available. Major changes are coming in the near future, including possible hostname and/or URL changes. To be notified of such changes, subscribe to this email list.

Please visit this page for more details.


Don't show this message again
HORIZONS Web-Interface
This tool provides a web-based limited interface to JPL's HORIZONS system which can be used to generate ephemerides for solar-system bodies. Full access to HORIZONS features is available via the primary telnet interface. HORIZONS system news shows recent changes and improvements. A web-interface tutorial is available to assist new users.
Current Settings
Ephemeris Type [change] : 	ELEMENTS
Target Body [change] : 	Mimas (SI) [601]
Center [change] : 	Saturn System Barycenter [500@6]
Time Span [change] : 	Start=JD 2458850.0, Stop=JD 2464329.0, Intervals=500
Table Settings [change] : 	CSV format=YES
Display/Output [change] : 	default (formatted HTML)
Object Data Page
 Revised: Jan 23, 2020             Mimas / (Saturn)                         601
                        http://ssd.jpl.nasa.gov/?sat_phys_par
                         http://ssd.jpl.nasa.gov/?sat_elem

 SATELLITE PHYSICAL PROPERTIES:
  Mean Radius (km)        = 198.8   +- 1.5   Density (g/cm^3)  = 1.152 +- 0.027
  Mass (10^19 kg)         =   3.75           Geometric Albedo  = 0.6 
  GM (km^3/s^2)           =   2.503617       V(1,0)            = +3.3

 SATELLITE ORBITAL DATA (mean elements referred to local Laplace plane):
  Semi-major axis, a (km) = 185.54(10^3)    Orbital period     = 0.9424218 d
  Eccentricity, e         = 0.0196          Rotational period  = Synchronous
  Inclination, i  (deg)   = 1.572
Results
*******************************************************************************
Ephemeris / WWW_USER Fri May 15 20:15:58 2020 Pasadena, USA      / Horizons    
*******************************************************************************
Target body name: Mimas (601)                     {source: sat427l_merged_DE438}
Center body name: Saturn Barycenter (6)           {source: sat427l_merged_DE438}
Center-site name: BODY CENTER
*******************************************************************************
Start time      : A.D. 2020-Jan-01 12:00:00.0000 TDB
Stop  time      : A.D. 2035-Jan-01 12:00:00.0000 TDB
Step-size       : 500 steps
*******************************************************************************
Center geodetic : 0.00000000,0.00000000,0.0000000 {E-lon(deg),Lat(deg),Alt(km)}
Center cylindric: 0.00000000,0.00000000,0.0000000 {E-lon(deg),Dxy(km),Dz(km)}
Center radii    : (undefined)                                                  
Keplerian GM    : 8.4597043985320853E-08 au^3/d^2
Output units    : AU-D, deg, Julian Day Number (Tp)                            
Output type     : GEOMETRIC osculating elements
Output format   : 10
Reference frame : ICRF/J2000.0                                                 
Coordinate systm: Ecliptic and Mean Equinox of Reference Epoch                 
*******************************************************************************
            JDTDB,            Calendar Date (TDB),                     EC,                     QR,                     IN,                     OM,                      W,                     Tp,                      N,                     MA,                     TA,                      A,                     AD,                     PR,
**************************************************************************************************************************************************************************************************************************************************************************************************************************************************
$$SOE
2464252.294000000, A.D. 2034-Oct-16 19:03:21.6000,  2.010125908717447E-02,  1.214597182054295E-03,  2.939984513256137E+01,  1.712501591890378E+02,  2.254404264401634E+02,  2.464252031668960E+06,  3.818771055004382E+02,  1.001782182321194E+02,  1.024347963169802E+02,  1.239512953065779E-03,  1.264428724077263E-03,  9.427116598891967E-01,
2464263.252000000, A.D. 2034-Oct-27 18:02:52.8000,  1.996646294896973E-02,  1.214227183056149E-03,  2.953154863231170E+01,  1.707014691592828E+02,  2.326663110974167E+02,  2.464263358154934E+06,  3.821305030316494E+02,  3.194349618975714E+02,  3.179185031944327E+02,  1.238964930434747E-03,  1.263702677813345E-03,  9.420865310251966E-01,
2464274.210000000, A.D. 2034-Nov-07 17:02:24.0000,  1.885558939274959E-02,  1.215908617791963E-03,  2.961053031717942E+01,  1.701084271256203E+02,  2.449246142869243E+02,  2.464273755238971E+06,  3.819866831514253E+02,  1.737126573962921E+02,  1.739438627638569E+02,  1.239275895216497E-03,  1.262643172641032E-03,  9.424412312753073E-01,
2464285.168000000, A.D. 2034-Nov-18 16:01:55.2000,  1.993224809901822E-02,  1.215020921761843E-03,  2.963547220997560E+01,  1.694969357624720E+02,  2.608789803747463E+02,  2.464285104358520E+06,  3.817761035958978E+02,  2.429679639837742E+01,  2.525837786416223E+01,  1.239731558767377E-03,  1.264442195772910E-03,  9.429610617563758E-01,
2464296.126000000, A.D. 2034-Nov-29 15:01:26.4000,  1.991489004687893E-02,  1.216645187772470E-03,  2.960497596526578E+01,  1.688823975842954E+02,  2.630851586865999E+02,  2.464296418418557E+06,  3.810219533782977E+02,  2.485821101740894E+02,  2.464772460951223E+02,  1.241366872547083E-03,  1.266088557321696E-03,  9.448274484136454E-01,
2464307.084000000, A.D. 2034-Dec-10 14:00:57.6000,  1.781256790112975E-02,  1.219741917905645E-03,  2.952292450940455E+01,  1.683000286800583E+02,  2.854859862429466E+02,  2.464306840660131E+06,  3.807937939261990E+02,  9.266231221690551E+01,  9.469874354415148E+01,  1.241862681239096E-03,  1.263983444572546E-03,  9.453935587767770E-01,
2464318.042000000, A.D. 2034-Dec-21 13:00:28.8000,  2.244566925722031E-02,  1.216478308290954E-03,  2.938400826938157E+01,  1.677538200297074E+02,  2.890054561976313E+02,  2.464318159100679E+06,  3.796251956458794E+02,  3.155456318627205E+02,  3.137078294086133E+02,  1.244409921816450E-03,  1.272341535341945E-03,  9.483037588891065E-01,
2464329.000000000, A.D. 2035-Jan-01 12:00:00.0000,  1.604906266306333E-02,  1.225163744601662E-03,  2.920298362510778E+01,  1.672530136870865E+02,  3.021250781341840E+02,  2.464328554990733E+06,  3.792880739399050E+02,  1.687867079176903E+02,  1.691374311569334E+02,  1.245147189876731E-03,  1.265130635151800E-03,  9.491466374369548E-01,
